[{"OBJECT_NAME":"TISAT 1","OBJECT_ID":"2010-035E","EPOCH":"2026-03-09T18:10:07.877568","MEAN_MOTION":15.27628633,"ECCENTRICITY":0.00013432,"INCLINATION":98.0645,"RA_OF_ASC_NODE":6.8512,"ARG_OF_PERICENTER":159.303,"MEAN_ANOMALY":200.8262,"EPHEMERIS_TYPE":0,"CLASSIFICATION_TYPE":"U","NORAD_CAT_ID":36799,"ELEMENT_SET_NO":999,"REV_AT_EPOCH":85250,"BSTAR":0.00091004793,"MEAN_MOTION_DOT":0.00024554,"MEAN_MOTION_DDOT":0},{"OBJECT_NAME":"STARLINK-33814","OBJECT_ID":"2025-076P","EPOCH":"2026-03-09T00:53:51.705600","MEAN_MOTION":15.27607641,"ECCENTRICITY":0.0001404,"INCLINATION":43.0039,"RA_OF_ASC_NODE":325.1199,"ARG_OF_PERICENTER":269.9064,"MEAN_ANOMALY":90.1627,"EPHEMERIS_TYPE":0,"CLASSIFICATION_TYPE":"U","NORAD_CAT_ID":63582,"ELEMENT_SET_NO":999,"REV_AT_EPOCH":5173,"BSTAR":0.0017192094,"MEAN_MOTION_DOT":0.00047391,"MEAN_MOTION_DDOT":0}]
